NORAD_CAT_ID,OBJECT_NAME,OBJECT_TYPE,EPOCH,MEAN_MOTION,ECCENTRICITY,INCLINATION,RA_OF_ASC_NODE,ARG_OF_PERICENTER,MEAN_ANOMALY,BSTAR,MEAN_MOTION_DOT,MEAN_MOTION_DDOT,TLE_LINE0,TLE_LINE1,TLE_LINE2,SEMIMAJOR_AXIS,PERIOD,APOGEE,PERIGEE,DECAYED
52863.0,STARLINK-4270,PAYLOAD,2022-12-01 10:10:43,15.0885679,0.0001864,53.2189,345.3773,27.7831,332.3261,-7.740899999999999e-05,-1.521e-05,0.0,0 STARLINK-4270,1 52863U 22062AK  22335.42411673 -.00001521  00000-0 -77409-4 0  9991,2 52863  53.2189 345.3773 0001864  27.7831 332.3261 15.08856790 25638,6917.829000000002,95.436,540.984,538.405,0.0
52863.0,STARLINK-4270,PAYLOAD,2022-12-01 18:07:40,15.08839778,0.000184,53.2186,343.8904,43.999,316.1149,2.8775e-05,1.7e-06,0.0,0 STARLINK-4270,1 52863U 22062AK  22335.75532545  .00000170  00000-0  28775-4 0  9998,2 52863  53.2186 343.8904 0001840  43.9990 316.1149 15.08839778 26176,6917.880999999999,95.438,541.019,538.4730000000002,0.0
52863.0,STARLINK-4270,PAYLOAD,2022-12-02 10:01:30,15.08844651,0.0001849,53.2185,340.9166,45.3176,314.7967,0.00016235,2.297e-05,0.0,0 STARLINK-4270,1 52863U 22062AK  22336.41771938  .00002297  00000-0  16235-3 0  9992,2 52863  53.2185 340.9166 0001849  45.3176 314.7967 15.08844651 25788,6917.866,95.437,541.01,538.452,0.0
52863.0,STARLINK-4270,PAYLOAD,2022-12-02 17:58:26,15.08842585,0.0001978,53.2175,339.4315,42.8639,317.2507,8.1738e-05,1.013e-05,0.0,0 STARLINK-4270,1 52863U 22062AK  22336.74892251  .00001013  00000-0  81738-4 0  9996,2 52863  53.2175 339.4315 0001978  42.8639 317.2507 15.08842585 25833,6917.871999999999,95.437,541.106,538.369,0.0
52863.0,STARLINK-4270,PAYLOAD,2022-12-03 06:41:33,15.088236800000002,0.0001958,53.2187,337.0518,46.6515,313.464,4.8108e-05,4.77e-06,0.0,0 STARLINK-4270,1 52863U 22062AK  22337.27885758  .00000477  00000-0  48108-4 0  9996,2 52863  53.2187 337.0518 0001958  46.6515 313.4640 15.08823680 26403,6917.93,95.439,541.15,538.441,0.0
52863.0,STARLINK-4270,PAYLOAD,2022-12-03 11:27:41,15.0883894,0.0002008,53.2194,336.1595,47.6622,312.454,-3.7346e-05,-8.83e-06,0.0,0 STARLINK-4270,1 52863U 22062AK  22337.47756884 -.00000883  00000-0 -37346-4 0  9990,2 52863  53.2194 336.1595 0002008  47.6622 312.4540 15.08838940 26439,6917.884,95.438,541.138,538.36,0.0
52863.0,STARLINK-4270,PAYLOAD,2022-12-04 11:18:28,15.08838711,0.0001774999999999,53.2193,331.6996,39.7539,320.3583,-2.1261e-05,-6.26e-06,0.0,0 STARLINK-4270,1 52863U 22062AK  22338.47116892 -.00000626  00000-0 -21261-4 0  9994,2 52863  53.2193 331.6996 0001775  39.7539 320.3583 15.08838711 26095,6917.884,95.438,540.977,538.521,0.0
52863.0,STARLINK-4270,PAYLOAD,2022-12-05 00:01:33,15.08839353,0.0001973,53.2188,329.3218,41.1455,318.9686,0.00017542,2.505e-05,0.0,0 STARLINK-4270,1 52863U 22062AK  22339.00108478  .00002505  00000-0  17542-3 0  9997,2 52863  53.2188 329.3218 0001973  41.1455 318.9686 15.08839353 26667,6917.882,95.438,541.112,538.382,0.0
52863.0,STARLINK-4270,PAYLOAD,2022-12-05 11:09:15,15.08841502,0.0002011,53.2191,327.2394,43.0532,317.0618,9.2537e-05,1.185e-05,0.0,0 STARLINK-4270,1 52863U 22062AK  22339.46476692  .00001185  00000-0  92537-4 0  9994,2 52863  53.2191 327.2394 0002011  43.0532 317.0618 15.08841502 26242,6917.876,95.437,541.132,538.35,0.0
52863.0,STARLINK-4270,PAYLOAD,2022-12-05 15:55:24,15.08845017,0.0002042,53.2192,326.3474,44.2341,315.8815,0.00012678,1.73e-05,0.0,0 STARLINK-4270,1 52863U 22062AK  22339.66348284  .00001730  00000-0  12678-3 0  9994,2 52863  53.2192 326.3474 0002042  44.2341 315.8815 15.08845017 26270,6917.865,95.437,541.143,538.317,0.0
52863.0,STARLINK-4270,PAYLOAD,2022-12-06 06:13:53,15.08842531,0.0001977,53.2193,323.6709,43.5527,316.5621,0.00011995,1.621e-05,0.0,0 STARLINK-4270,1 52863U 22062AK  22340.25964458  .00001621  00000-0  11995-3 0  9998,2 52863  53.2193 323.6709 0001977  43.5527 316.5621 15.08842531 26851,6917.873000000001,95.437,541.105,538.37,0.0
52863.0,STARLINK-4270,PAYLOAD,2022-12-06 09:24:39,15.08841165,0.0002004,53.2195,323.0766,42.7683,317.3464,9.8131e-05,1.274e-05,0.0,0 STARLINK-4270,1 52863U 22062AK  22340.39212562  .00001274  00000-0  98131-4 0  9997,2 52863  53.2195 323.0766 0002004  42.7683 317.3464 15.08841165 26380,6917.877,95.437,541.128,538.355,0.0
52863.0,STARLINK-4270,PAYLOAD,2022-12-06 15:46:12,15.08833502,0.0002161,53.2198,321.8869,42.0754,318.0404,2.7046e-05,1.42e-06,0.0,0 STARLINK-4270,1 52863U 22062AK  22340.65709402  .00000142  00000-0  27046-4 0  9990,2 52863  53.2198 321.8869 0002161  42.0754 318.0404 15.08833502 26422,6917.9,95.438,541.26,538.27,0.0
52863.0,STARLINK-4270,PAYLOAD,2022-12-06 22:07:45,15.08832256,0.0002093,53.2197,320.6978,43.6806,316.4352,-2.6312e-05,-7.07e-06,0.0,0 STARLINK-4270,1 52863U 22062AK  22340.92205615 -.00000707  00000-0 -26312-4 0  9991,2 52863  53.2197 320.6978 0002093  43.6806 316.4352 15.08832256 26955,6917.904,95.438,541.217,538.321,0.0
52863.0,STARLINK-4270,PAYLOAD,2022-12-07 09:15:27,15.08834187,0.0002181,53.2193,318.6159,40.398,319.7173,-6.782e-05,-1.367e-05,0.0,0 STARLINK-4270,1 52863U 22062AK  22341.38573850 -.00001367  00000-0 -67820-4 0  9993,2 52863  53.2193 318.6159 0002181  40.3980 319.7173 15.08834187 26530,6917.898,95.438,541.2719999999998,538.254,0.0
52863.0,STARLINK-4270,PAYLOAD,2022-12-08 07:30:50,15.08851362,0.000214,53.22,314.453,46.9893,313.1279,0.0001806,2.588e-05,0.0,0 STARLINK-4270,1 52863U 22062AK  22342.31308194  .00002588  00000-0  18060-3 0  9999,2 52863  53.2200 314.4530 0002140  46.9893 313.1279 15.08851362 26670,6917.846,95.437,541.191,538.23,0.0
52863.0,STARLINK-4270,PAYLOAD,2022-12-08 15:27:45,15.08853737,0.0001931,53.2186,312.9657,42.9052,317.209,0.00029564,4.422e-05,0.0,0 STARLINK-4270,1 52863U 22062AK  22342.64428091  .00004422  00000-0  29564-3 0  9994,2 52863  53.2186 312.9657 0001931  42.9052 317.2090 15.08853737 27211,6917.8380000000025,95.437,541.039,538.368,0.0
52863.0,STARLINK-4270,PAYLOAD,2022-12-09 07:21:37,15.08848392,0.0001953,53.218,309.9925,37.241,322.8717,0.00026165,3.879e-05,0.0,0 STARLINK-4270,1 52863U 22062AK  22343.30668136  .00003879  00000-0  26165-3 0  9993,2 52863  53.2180 309.9925 0001953  37.2410 322.8717 15.08848392 27318,6917.855,95.437,541.071,538.369,0.0
52863.0,STARLINK-4270,PAYLOAD,2022-12-10 04:01:39,15.0882796,0.0002043,53.2187,306.1293,38.7979,321.316,-0.00014657,-2.619e-05,0.0,0 STARLINK-4270,1 52863U 22062AK  22344.16781554 -.00002619  00000-0 -14657-3 0  9994,2 52863  53.2187 306.1293 0002043  38.7979 321.3160 15.08827960 27447,6917.917,95.438,541.196,538.369,0.0
52863.0,STARLINK-4270,PAYLOAD,2022-12-10 07:12:25,15.08831153,0.0001843,53.2183,305.5319,47.0104,313.1043,-8.5272e-05,-1.645e-05,0.0,0 STARLINK-4270,1 52863U 22062AK  22344.30029452 -.00001645  00000-0 -85272-4 0  9992,2 52863  53.2183 305.5319 0001843  47.0104 313.1043 15.08831153 26970,6917.906999999997,95.438,541.047,538.497,0.0
52863.0,STARLINK-4270,PAYLOAD,2022-12-11 03:52:26,15.08837825,0.0002083,53.2189,301.6672,43.5215,316.5941,6.752699999999999e-05,7.87e-06,0.0,0 STARLINK-4270,1 52863U 22062AK  22345.16141609  .00000787  00000-0  67527-4 0  9993,2 52863  53.2189 301.6672 0002083  43.5215 316.5941 15.08837825 27591,6917.887,95.438,541.193,538.311,0.0
52863.0,STARLINK-4270,PAYLOAD,2022-12-11 07:03:12,15.08839016,0.0002067,53.2187,301.0717,42.2085,317.9066,0.00010527,1.388e-05,0.0,0 STARLINK-4270,1 52863U 22062AK  22345.29389681  .00001388  00000-0  10527-3 0  9996,2 52863  53.2187 301.0717 0002067  42.2085 317.9066 15.08839016 27122,6917.8830000000025,95.438,541.178,538.318,0.0
52863.0,STARLINK-4270,PAYLOAD,2022-12-12 05:18:36,15.08842852,0.0002117,53.2183,296.9093,28.0583,332.0523,0.00023139,3.397e-05,0.0,0 STARLINK-4270,1 52863U 22062AK  22346.22125773  .00003397  00000-0  23139-3 0  9995,2 52863  53.2183 296.9093 0002117  28.0583 332.0523 15.08842852 27755,6917.871999999999,95.437,541.201,538.2719999999998,0.0
52863.0,STARLINK-4270,PAYLOAD,2022-12-12 06:53:59,15.08837335,0.000203,53.2188,296.6122,35.8139,324.2989,0.00015587,2.193e-05,0.0,0 STARLINK-4270,1 52863U 22062AK  22346.28749971  .00002193  00000-0  15587-3 0  9994,2 52863  53.2188 296.6122 0002030  35.8139 324.2989 15.08837335 27273,6917.889,95.438,541.158,538.349,0.0
52863.0,STARLINK-4270,PAYLOAD,2022-12-13 05:09:24,15.08832436,0.0001861,53.2178,292.4487,42.4249,317.6887,-2.8922e-05,-7.48e-06,0.0,0 STARLINK-4270,1 52863U 22062AK  22347.21486284 -.00000748  00000-0 -28922-4 0  9997,2 52863  53.2178 292.4487 0001861  42.4249 317.6887 15.08832436 27907,6917.904,95.438,541.056,538.481,0.0
52863.0,STARLINK-4270,PAYLOAD,2022-12-13 13:06:19,15.08837522,0.0001866,53.2185,290.9622,42.5106,317.6031,3.088e-05,2.03e-06,0.0,0 STARLINK-4270,1 52863U 22062AK  22347.54606322  .00000203  00000-0  30880-4 0  9990,2 52863  53.2185 290.9622 0001866  42.5106 317.6031 15.08837522 27460,6917.888000000001,95.438,541.044,538.462,0.0
52863.0,STARLINK-4270,PAYLOAD,2022-12-14 05:00:10,15.08843365,0.0001863,53.2185,287.9883,41.0629,319.0503,2.1738e-05,5.8e-07,0.0,0 STARLINK-4270,1 52863U 22062AK  22348.20845971  .00000058  00000-0  21738-4 0  9999,2 52863  53.2185 287.9883 0001863  41.0629 319.0503 15.08843365 28054,6917.87,95.437,541.024,538.446,0.0
52863.0,STARLINK-4270,PAYLOAD,2022-12-14 12:57:06,15.08841421,0.000188,53.2186,286.5017,41.0292,319.0841,0.00014368,1.999e-05,0.0,0 STARLINK-4270,1 52863U 22062AK  22348.53965863  .00001999  00000-0  14368-3 0  9993,2 52863  53.2186 286.5017 0001880  41.0292 319.0841 15.08841421 27611,6917.876,95.437,541.0419999999998,538.44,0.0
52863.0,STARLINK-4270,PAYLOAD,2022-12-15 04:50:58,15.08824953,0.000201,53.2188,283.5284,41.04,319.0743,0.00020615,2.993e-05,0.0,0 STARLINK-4270,1 52863U 22062AK  22349.20206955  .00002993  00000-0  20615-3 0  9995,2 52863  53.2188 283.5284 0002010  41.0400 319.0743 15.08824953 28201,6917.926,95.439,541.182,538.401,0.0
